start=new Date('2023-06-17T00:00:00.000Z').valueOf();
sats=[{"TLE_LINE2":"2 45785  53.0549 351.8214 0000975  96.2417 263.8683 15.06401009166501","MEAN_MOTION_DOT":"0.00017452","ARG_OF_PERICENTER":"96.2417","REV_AT_EPOCH":"16650","TIME_SYSTEM":"UTC","OBJECT_NAME":"STARLINK-1512","NORAD_CAT_ID":"45785","FILE":"3934949","RCS_SIZE":"LARGE","REF_FRAME":"TEME","GP_ID":"234092069","LAUNCH_DATE":"2020-06-13","APOAPSIS":"547.886","MEAN_ANOMALY":"263.8683","PERIAPSIS":"546.535","MEAN_ELEMENT_THEORY":"SGP4","ECCENTRICITY":"0.00009750","OBJECT_TYPE":"PAYLOAD","INCLINATION":"53.0549","BSTAR":"0.00118760000000","PERIOD":"95.592","EPOCH":"2023-06-16T19:13:43.480416","EPHEMERIS_TYPE":"0","MEAN_MOTION":"15.06401009","DECAY_DATE":null,"TLE_LINE1":"1 45785U 20038BH  23167.80119769  .00017452  00000-0  11876-2 0  9996","SEMIMAJOR_AXIS":"6925.345","ELEMENT_SET_NO":"999","CENTER_NAME":"EARTH","MEAN_MOTION_DDOT":"0.0000000000000","SITE":"AFETR","RA_OF_ASC_NODE":"351.8214","OBJECT_ID":"2020-038BH","COUNTRY_CODE":"US","CLASSIFICATION_TYPE":"U"},{"FILE":"3934949","RCS_SIZE":"LARGE","NORAD_CAT_ID":"45786","GP_ID":"234090831","REF_FRAME":"TEME","APOAPSIS":"547.700","LAUNCH_DATE":"2020-06-13","PERIAPSIS":"546.687","MEAN_ELEMENT_THEORY":"SGP4","MEAN_ANOMALY":"267.3515","ECCENTRICITY":"0.00007310","TLE_LINE2":"2 45786  53.0536 351.8952 0000731  92.7558 267.3515 15.06406485166500","MEAN_MOTION_DOT":"0.00006372","TIME_SYSTEM":"UTC","OBJECT_NAME":"STARLINK-1513","ARG_OF_PERICENTER":"92.7558","REV_AT_EPOCH":"16650","RA_OF_ASC_NODE":"351.8952","OBJECT_ID":"2020-038BJ","CLASSIFICATION_TYPE":"U","COUNTRY_CODE":"US","BSTAR":"0.00044620000000","PERIOD":"95.592","OBJECT_TYPE":"PAYLOAD","INCLINATION":"53.0536","MEAN_MOTION":"15.06406485","EPOCH":"2023-06-16T18:52:30.685728","EPHEMERIS_TYPE":"0","DECAY_DATE":null,"ELEMENT_SET_NO":"999","CENTER_NAME":"EARTH","SITE":"AFETR","MEAN_MOTION_DDOT":"0.0000000000000","SEMIMAJOR_AXIS":"6925.329","TLE_LINE1":"1 45786U 20038BJ  23167.78646627  .00006372  00000-0  44620-3 0  9995"},{"SEMIMAJOR_AXIS":"6925.297","TLE_LINE1":"1 45787U 20038BK  23167.72749070  .00009639  00000-0  66479-3 0  9991","SITE":"AFETR","MEAN_MOTION_DDOT":"0.0000000000000","ELEMENT_SET_NO":"999","CENTER_NAME":"EARTH","DECAY_DATE":null,"EPOCH":"2023-06-16T17:27:35.196480","EPHEMERIS_TYPE":"0","MEAN_MOTION":"15.06416780","INCLINATION":"53.0539","OBJECT_TYPE":"PAYLOAD","PERIOD":"95.591","BSTAR":"0.00066479000000","COUNTRY_CODE":"US","CLASSIFICATION_TYPE":"U","OBJECT_ID":"2020-038BK","RA_OF_ASC_NODE":"352.1504","REV_AT_EPOCH":"16649","ARG_OF_PERICENTER":"113.5671","OBJECT_NAME":"STARLINK-1517","TIME_SYSTEM":"UTC","MEAN_MOTION_DOT":"0.00009639","TLE_LINE2":"2 45787  53.0539 352.1504 0001031 113.5671 246.5426 15.06416780166490","ECCENTRICITY":"0.00010310","MEAN_ANOMALY":"246.5426","PERIAPSIS":"546.448","MEAN_ELEMENT_THEORY":"SGP4","LAUNCH_DATE":"2020-06-13","APOAPSIS":"547.876","GP_ID":"234091081","REF_FRAME":"TEME","RCS_SIZE":"LARGE","FILE":"3934949","NORAD_CAT_ID":"45787"},{"DECAY_DATE":null,"CENTER_NAME":"EARTH","ELEMENT_SET_NO":"999","SITE":"AFETR","MEAN_MOTION_DDOT":"0.0000000000000","TLE_LINE1":"1 46027U 20055A   23167.70075639  .00016977  00000-0  11552-2 0  9993","SEMIMAJOR_AXIS":"6925.281","BSTAR":"0.00115520000000","PERIOD":"95.591","OBJECT_TYPE":"PAYLOAD","INCLINATION":"53.0543","MEAN_MOTION":"15.06421911","EPHEMERIS_TYPE":"0","EPOCH":"2023-06-16T16:49:05.352096","CLASSIFICATION_TYPE":"U","COUNTRY_CODE":"US","RA_OF_ASC_NODE":"282.2741","OBJECT_ID":"2020-055A","TIME_SYSTEM":"UTC","OBJECT_NAME":"STARLINK-1522","ARG_OF_PERICENTER":"103.2719","REV_AT_EPOCH":"15861","TLE_LINE2":"2 46027  53.0543 282.2741 0000847 103.2719 256.8365 15.06421911158615","MEAN_MOTION_DOT":"0.00016977","APOAPSIS":"547.733","LAUNCH_DATE":"2020-08-07","MEAN_ANOMALY":"256.8365","PERIAPSIS":"546.560","MEAN_ELEMENT_THEORY":"SGP4","ECCENTRICITY":"0.00008470","FILE":"3934949","RCS_SIZE":"LARGE","NORAD_CAT_ID":"46027","REF_FRAME":"TEME","GP_ID":"234091602"},{"GP_ID":"234068623","REF_FRAME":"TEME","FILE":"3934766","NORAD_CAT_ID":"46028","RCS_SIZE":"LARGE","MEAN_ELEMENT_THEORY":"SGP4","PERIAPSIS":"546.588","MEAN_ANOMALY":"277.9510","ECCENTRICITY":"0.00008640","LAUNCH_DATE":"2020-08-07","APOAPSIS":"547.785","MEAN_MOTION_DOT":"0.00024311","TLE_LINE2":"2 46028  53.0534 282.8085 0000864  82.1577 277.9510 15.06408728158098","ARG_OF_PERICENTER":"82.1577","REV_AT_EPOCH":"15809","TIME_SYSTEM":"UTC","OBJECT_NAME":"STARLINK-1523","OBJECT_ID":"2020-055B","RA_OF_ASC_NODE":"282.8085","COUNTRY_CODE":"US","CLASSIFICATION_TYPE":"U","EPOCH":"2023-06-16T13:59:15.220320","EPHEMERIS_TYPE":"0","MEAN_MOTION":"15.06408728","OBJECT_TYPE":"PAYLOAD","INCLINATION":"53.0534","BSTAR":"0.00164500000000","PERIOD":"95.592","SEMIMAJOR_AXIS":"6925.322","TLE_LINE1":"1 46028U 20055B   23167.58281505  .00024311  00000-0  16450-2 0  9994","CENTER_NAME":"EARTH","ELEMENT_SET_NO":"999","SITE":"AFETR","MEAN_MOTION_DDOT":"0.0000000000000","DECAY_DATE":null},{"PERIOD":"95.591","BSTAR":"0.00208310000000","INCLINATION":"53.0539","OBJECT_TYPE":"PAYLOAD","MEAN_MOTION":"15.06414377","EPHEMERIS_TYPE":"0","EPOCH":"2023-06-16T16:59:42.526176","DECAY_DATE":null,"SITE":"AFETR","MEAN_MOTION_DDOT":"0.0000000000000","CENTER_NAME":"EARTH","ELEMENT_SET_NO":"999","TLE_LINE1":"1 46029U 20055C   23167.70813109  .00030895  00000-0  20831-2 0  9992","SEMIMAJOR_AXIS":"6925.304","RA_OF_ASC_NODE":"282.2450","OBJECT_ID":"2020-055C","CLASSIFICATION_TYPE":"U","COUNTRY_CODE":"US","TLE_LINE2":"2 46029  53.0539 282.2450 0000835  68.1359 291.9719 15.06414377158627","MEAN_MOTION_DOT":"0.00030895","OBJECT_NAME":"STARLINK-1526","TIME_SYSTEM":"UTC","REV_AT_EPOCH":"15862","ARG_OF_PERICENTER":"68.1359","NORAD_CAT_ID":"46029","FILE":"3934949","RCS_SIZE":"LARGE","REF_FRAME":"TEME","GP_ID":"234092091","APOAPSIS":"547.748","LAUNCH_DATE":"2020-08-07","ECCENTRICITY":"0.00008350","PERIAPSIS":"546.591","MEAN_ELEMENT_THEORY":"SGP4","MEAN_ANOMALY":"291.9719"},{"ARG_OF_PERICENTER":"98.4184","REV_AT_EPOCH":"15856","TIME_SYSTEM":"UTC","OBJECT_NAME":"STARLINK-1534","MEAN_MOTION_DOT":"0.00019332","TLE_LINE2":"2 46030  53.0536 282.7501 0000737  98.4184 261.6888 15.06396867158568","MEAN_ELEMENT_THEORY":"SGP4","PERIAPSIS":"546.713","MEAN_ANOMALY":"261.6888","ECCENTRICITY":"0.00007370","LAUNCH_DATE":"2020-08-07","APOAPSIS":"547.734","GP_ID":"234059459","REF_FRAME":"TEME","FILE":"3934686","NORAD_CAT_ID":"46030","RCS_SIZE":"LARGE","SEMIMAJOR_AXIS":"6925.358","TLE_LINE1":"1 46030U 20055D   23167.59387558  .00019332  00000-0  13133-2 0  9995","ELEMENT_SET_NO":"999","CENTER_NAME":"EARTH","SITE":"AFETR","MEAN_MOTION_DDOT":"0.0000000000000","DECAY_DATE":null,"EPHEMERIS_TYPE":"0","EPOCH":"2023-06-16T14:15:10.850112","MEAN_MOTION":"15.06396867","OBJECT_TYPE":"PAYLOAD","INCLINATION":"53.0536","BSTAR":"0.00131330000000","PERIOD":"95.592","COUNTRY_CODE":"US","CLASSIFICATION_TYPE":"U","OBJECT_ID":"2020-055D","RA_OF_ASC_NODE":"282.7501"},{"PERIAPSIS":"546.294","MEAN_ELEMENT_THEORY":"SGP4","MEAN_ANOMALY":"292.2723","ECCENTRICITY":"0.00011960","LAUNCH_DATE":"2020-08-07","APOAPSIS":"547.951","GP_ID":"234091103","REF_FRAME":"TEME","RCS_SIZE":"LARGE","FILE":"3934949","NORAD_CAT_ID":"46031","ARG_OF_PERICENTER":"67.8393","REV_AT_EPOCH":"15859","TIME_SYSTEM":"UTC","OBJECT_NAME":"STARLINK-1544","MEAN_MOTION_DOT":"0.00036037","TLE_LINE2":"2 46031  53.0537 282.7303 0001196  67.8393 292.2723 15.06429674158596","COUNTRY_CODE":"US","CLASSIFICATION_TYPE":"U","OBJECT_ID":"2020-055E","RA_OF_ASC_NODE":"282.7303","SEMIMAJOR_AXIS":"6925.258","TLE_LINE1":"1 46031U 20055E   23167.59662887  .00036037  00000-0  24239-2 0  9997","ELEMENT_SET_NO":"999","CENTER_NAME":"EARTH","MEAN_MOTION_DDOT":"0.0000000000000","SITE":"AFETR","DECAY_DATE":null,"EPHEMERIS_TYPE":"0","EPOCH":"2023-06-16T14:19:08.734368","MEAN_MOTION":"15.06429674","OBJECT_TYPE":"PAYLOAD","INCLINATION":"53.0537","BSTAR":"0.00242390000000","PERIOD":"95.590"},{"ECCENTRICITY":"0.00007930","MEAN_ANOMALY":"259.4392","PERIAPSIS":"546.581","MEAN_ELEMENT_THEORY":"SGP4","LAUNCH_DATE":"2020-08-07","APOAPSIS":"547.679","REF_FRAME":"TEME","GP_ID":"234092351","FILE":"3934949","RCS_SIZE":"LARGE","NORAD_CAT_ID":"46032","REV_AT_EPOCH":"15863","ARG_OF_PERICENTER":"100.6687","OBJECT_NAME":"STARLINK-1555","TIME_SYSTEM":"UTC","MEAN_MOTION_DOT":"0.00018271","TLE_LINE2":"2 46032  53.0548 282.0099 0000793 100.6687 259.4392 15.06427184158634","COUNTRY_CODE":"US","CLASSIFICATION_TYPE":"U","OBJECT_ID":"2020-055F","RA_OF_ASC_NODE":"282.0099","TLE_LINE1":"1 46032U 20055F   23167.75973558  .00018271  00000-0  12414-2 0  9998","SEMIMAJOR_AXIS":"6925.265","SITE":"AFETR","MEAN_MOTION_DDOT":"0.0000000000000","ELEMENT_SET_NO":"999","CENTER_NAME":"EARTH","DECAY_DATE":null,"EPOCH":"2023-06-16T18:14:01.154112","EPHEMERIS_TYPE":"0","MEAN_MOTION":"15.06427184","INCLINATION":"53.0548","OBJECT_TYPE":"PAYLOAD","PERIOD":"95.590","BSTAR":"0.00124140000000"},{"OBJECT_ID":"2020-055G","RA_OF_ASC_NODE":"282.6901","CLASSIFICATION_TYPE":"U","COUNTRY_CODE":"US","MEAN_MOTION":"15.06417306","EPHEMERIS_TYPE":"0","EPOCH":"2023-06-16T14:36:25.063488","BSTAR":"0.00212640000000","PERIOD":"95.591","OBJECT_TYPE":"PAYLOAD","INCLINATION":"53.0543","ELEMENT_SET_NO":"999","CENTER_NAME":"EARTH","MEAN_MOTION_DDOT":"0.0000000000000","SITE":"AFETR","SEMIMAJOR_AXIS":"6925.296","TLE_LINE1":"1 46033U 20055G   23167.60862342  .00031548  00000-0  21264-2 0  9996","DECAY_DATE":null,"GP_ID":"234092591","REF_FRAME":"TEME","NORAD_CAT_ID":"46033","FILE":"3934949","RCS_SIZE":"LARGE","PERIAPSIS":"546.470","MEAN_ANOMALY":"281.1528","MEAN_ELEMENT_THEORY":"SGP4","ECCENTRICITY":"0.00009970","APOAPSIS":"547.851","LAUNCH_DATE":"2020-08-07","MEAN_MOTION_DOT":"0.00031548","TLE_LINE2":"2 46033  53.0543 282.6901 0000997  78.9574 281.1528 15.06417306158588","TIME_SYSTEM":"UTC","OBJECT_NAME":"STARLINK-1556","ARG_OF_PERICENTER":"78.9574","REV_AT_EPOCH":"15858"}];
